start=new Date('2022-06-10T00:00:00.000Z').valueOf();
sats=[{"CENTER_NAME":"EARTH","OBJECT_NAME":"STARLINK-3766","APOAPSIS":"375.834","MEAN_ANOMALY":"125.4660","SEMIMAJOR_AXIS":"6753.073","TIME_SYSTEM":"UTC","EPOCH":"2022-06-09T22:00:00.999936","SITE":"AFETR","ECCENTRICITY":"0.00013270","MEAN_ELEMENT_THEORY":"SGP4","FILE":"3489040","TLE_LINE1":"1 52296U 22041AM  22160.91667824 -.00715194  00000-0 -79771-2 0  9999","CLASSIFICATION_TYPE":"U","MEAN_MOTION_DDOT":"0.0000000000000","MEAN_MOTION_DOT":"-0.00715194","LAUNCH_DATE":"2022-04-21","EPHEMERIS_TYPE":"0","BSTAR":"-0.00797710000000","OBJECT_ID":"2022-041AM","ARG_OF_PERICENTER":"64.9621","ELEMENT_SET_NO":"999","PERIOD":"92.047","OBJECT_TYPE":"PAYLOAD","REV_AT_EPOCH":"130","INCLINATION":"53.2175","TLE_LINE2":"2 52296  53.2175 131.3602 0001327  64.9621 125.4660 15.64409928  1302","NORAD_CAT_ID":"52296","REF_FRAME":"TEME","RA_OF_ASC_NODE":"131.3602","DECAY_DATE":null,"PERIAPSIS":"374.042","COUNTRY_CODE":"US","GP_ID":"205783849","MEAN_MOTION":"15.64409928","RCS_SIZE":"LARGE"},{"MEAN_MOTION_DOT":"-0.00715134","MEAN_MOTION_DDOT":"0.0000000000000","TLE_LINE1":"1 52297U 22041AN  22160.91667824 -.00715134  00000-0 -79838-2 0  9998","CLASSIFICATION_TYPE":"U","MEAN_ELEMENT_THEORY":"SGP4","FILE":"3489040","EPOCH":"2022-06-09T22:00:00.999936","ECCENTRICITY":"0.00013220","SITE":"AFETR","TIME_SYSTEM":"UTC","SEMIMAJOR_AXIS":"6753.140","CENTER_NAME":"EARTH","OBJECT_NAME":"STARLINK-3758","APOAPSIS":"375.898","MEAN_ANOMALY":"121.8003","GP_ID":"205784061","MEAN_MOTION":"15.64386658","COUNTRY_CODE":"US","RCS_SIZE":"LARGE","RA_OF_ASC_NODE":"131.3390","PERIAPSIS":"374.113","DECAY_DATE":null,"REV_AT_EPOCH":"130","INCLINATION":"53.2174","TLE_LINE2":"2 52297  53.2174 131.3390 0001322  65.1823 121.8003 15.64386658  1303","REF_FRAME":"TEME","NORAD_CAT_ID":"52297","ELEMENT_SET_NO":"999","PERIOD":"92.049","OBJECT_TYPE":"PAYLOAD","BSTAR":"-0.00798380000000","EPHEMERIS_TYPE":"0","OBJECT_ID":"2022-041AN","ARG_OF_PERICENTER":"65.1823","LAUNCH_DATE":"2022-04-21"},{"TIME_SYSTEM":"UTC","SITE":"AFETR","ECCENTRICITY":"0.00013380","EPOCH":"2022-06-09T22:00:00.999936","APOAPSIS":"375.829","MEAN_ANOMALY":"127.2583","OBJECT_NAME":"STARLINK-3760","CENTER_NAME":"EARTH","SEMIMAJOR_AXIS":"6753.060","MEAN_MOTION_DDOT":"0.0000000000000","MEAN_MOTION_DOT":"-0.00715136","MEAN_ELEMENT_THEORY":"SGP4","FILE":"3489040","CLASSIFICATION_TYPE":"U","TLE_LINE1":"1 52298U 22041AP  22160.91667824 -.00715136  00000-0 -79749-2 0  9992","LAUNCH_DATE":"2022-04-21","ARG_OF_PERICENTER":"63.8588","BSTAR":"-0.00797490000000","OBJECT_ID":"2022-041AP","EPHEMERIS_TYPE":"0","DECAY_DATE":null,"PERIAPSIS":"374.021","RA_OF_ASC_NODE":"131.3644","RCS_SIZE":"LARGE","MEAN_MOTION":"15.64414544","GP_ID":"205783956","COUNTRY_CODE":"US","OBJECT_TYPE":"PAYLOAD","PERIOD":"92.047","ELEMENT_SET_NO":"999","NORAD_CAT_ID":"52298","REF_FRAME":"TEME","TLE_LINE2":"2 52298  53.2174 131.3644 0001338  63.8588 127.2583 15.64414544  1305","INCLINATION":"53.2174","REV_AT_EPOCH":"130"},{"TLE_LINE1":"1 52299U 22041AQ  22160.91667824 -.00715227  00000-0 -79789-2 0  9998","CLASSIFICATION_TYPE":"U","MEAN_ELEMENT_THEORY":"SGP4","FILE":"3489040","MEAN_MOTION_DOT":"-0.00715227","MEAN_MOTION_DDOT":"0.0000000000000","SEMIMAJOR_AXIS":"6753.087","CENTER_NAME":"EARTH","OBJECT_NAME":"STARLINK-3759","APOAPSIS":"375.871","MEAN_ANOMALY":"130.3526","EPOCH":"2022-06-09T22:00:00.999936","SITE":"AFETR","ECCENTRICITY":"0.00013620","TIME_SYSTEM":"UTC","INCLINATION":"53.2175","REV_AT_EPOCH":"130","TLE_LINE2":"2 52299  53.2175 131.3562 0001362  59.3865 130.3526 15.64405288  1308","NORAD_CAT_ID":"52299","REF_FRAME":"TEME","ELEMENT_SET_NO":"999","PERIOD":"92.048","OBJECT_TYPE":"PAYLOAD","GP_ID":"205784514","MEAN_MOTION":"15.64405288","COUNTRY_CODE":"US","RCS_SIZE":"LARGE","RA_OF_ASC_NODE":"131.3562","DECAY_DATE":null,"PERIAPSIS":"374.032","BSTAR":"-0.00797890000000","EPHEMERIS_TYPE":"0","OBJECT_ID":"2022-041AQ","ARG_OF_PERICENTER":"59.3865","LAUNCH_DATE":"2022-04-21"},{"SEMIMAJOR_AXIS":"6753.033","APOAPSIS":"375.756","MEAN_ANOMALY":"117.7838","OBJECT_NAME":"STARLINK-3769","CENTER_NAME":"EARTH","SITE":"AFETR","ECCENTRICITY":"0.00012710","EPOCH":"2022-06-09T22:00:00.999936","TIME_SYSTEM":"UTC","CLASSIFICATION_TYPE":"U","TLE_LINE1":"1 52300U 22041AR  22160.91667824 -.00715261  00000-0 -79736-2 0  9991","FILE":"3489040","MEAN_ELEMENT_THEORY":"SGP4","MEAN_MOTION_DOT":"-0.00715261","MEAN_MOTION_DDOT":"0.0000000000000","ARG_OF_PERICENTER":"74.7112","OBJECT_ID":"2022-041AR","BSTAR":"-0.00797360000000","EPHEMERIS_TYPE":"0","LAUNCH_DATE":"2022-04-21","NORAD_CAT_ID":"52300","REF_FRAME":"TEME","TLE_LINE2":"2 52300  53.2175 131.3729 0001271  74.7112 117.7838 15.64423909  1306","INCLINATION":"53.2175","REV_AT_EPOCH":"130","OBJECT_TYPE":"PAYLOAD","PERIOD":"92.047","ELEMENT_SET_NO":"999","RCS_SIZE":"LARGE","GP_ID":"205784196","MEAN_MOTION":"15.64423909","COUNTRY_CODE":"US","DECAY_DATE":null,"PERIAPSIS":"374.040","RA_OF_ASC_NODE":"131.3729"},{"LAUNCH_DATE":"2022-04-21","BSTAR":"-0.00797930000000","OBJECT_ID":"2022-041AS","EPHEMERIS_TYPE":"0","ARG_OF_PERICENTER":"59.4667","RA_OF_ASC_NODE":"131.3518","DECAY_DATE":null,"PERIAPSIS":"374.038","GP_ID":"205784408","COUNTRY_CODE":"US","MEAN_MOTION":"15.64400583","RCS_SIZE":"LARGE","ELEMENT_SET_NO":"999","PERIOD":"92.048","OBJECT_TYPE":"PAYLOAD","INCLINATION":"53.2175","REV_AT_EPOCH":"130","TLE_LINE2":"2 52301  53.2175 131.3518 0001373  59.4667 129.5834 15.64400583  1301","NORAD_CAT_ID":"52301","REF_FRAME":"TEME","TIME_SYSTEM":"UTC","EPOCH":"2022-06-09T22:00:00.999936","SITE":"AFETR","ECCENTRICITY":"0.00013730","CENTER_NAME":"EARTH","OBJECT_NAME":"STARLINK-3768","MEAN_ANOMALY":"129.5834","APOAPSIS":"375.892","SEMIMAJOR_AXIS":"6753.100","MEAN_MOTION_DDOT":"0.0000000000000","MEAN_MOTION_DOT":"-0.00715139","FILE":"3489040","MEAN_ELEMENT_THEORY":"SGP4","TLE_LINE1":"1 52301U 22041AS  22160.91667824 -.00715139  00000-0 -79793-2 0  9999","CLASSIFICATION_TYPE":"U"},{"SEMIMAJOR_AXIS":"6727.897","MEAN_ANOMALY":"31.2565","APOAPSIS":"352.374","OBJECT_NAME":"STARLINK-3564","CENTER_NAME":"EARTH","ECCENTRICITY":"0.00038820","SITE":"AFETR","EPOCH":"2022-06-10T00:00:00.999648","TIME_SYSTEM":"UTC","CLASSIFICATION_TYPE":"U","TLE_LINE1":"1 52302U 22041AT  22161.00001157  .00014053  00000-0  10437-3 0  9998","MEAN_ELEMENT_THEORY":"SGP4","FILE":"3488869","MEAN_MOTION_DOT":"0.00014053","MEAN_MOTION_DDOT":"0.0000000000000","ARG_OF_PERICENTER":"6.3508","BSTAR":"0.00010437000000","EPHEMERIS_TYPE":"0","OBJECT_ID":"2022-041AT","LAUNCH_DATE":"2022-04-21","NORAD_CAT_ID":"52302","REF_FRAME":"TEME","TLE_LINE2":"2 52302  53.2152 130.7342 0003882   6.3508  31.2565 15.73199241  8984","INCLINATION":"53.2152","REV_AT_EPOCH":"898","OBJECT_TYPE":"PAYLOAD","PERIOD":"91.533","ELEMENT_SET_NO":"999","RCS_SIZE":"LARGE","GP_ID":"205755194","COUNTRY_CODE":"US","MEAN_MOTION":"15.73199241","PERIAPSIS":"347.151","DECAY_DATE":null,"RA_OF_ASC_NODE":"130.7342"},{"TLE_LINE1":"1 52303U 22041AU  22160.91667824 -.00715127  00000-0 -79733-2 0  9992","CLASSIFICATION_TYPE":"U","MEAN_ELEMENT_THEORY":"SGP4","FILE":"3489040","MEAN_MOTION_DOT":"-0.00715127","MEAN_MOTION_DDOT":"0.0000000000000","SEMIMAJOR_AXIS":"6753.047","OBJECT_NAME":"STARLINK-3742","CENTER_NAME":"EARTH","APOAPSIS":"375.822","MEAN_ANOMALY":"129.4452","EPOCH":"2022-06-09T22:00:00.999936","ECCENTRICITY":"0.00013480","SITE":"AFETR","TIME_SYSTEM":"UTC","REV_AT_EPOCH":"130","INCLINATION":"53.2175","NORAD_CAT_ID":"52303","REF_FRAME":"TEME","TLE_LINE2":"2 52303  53.2175 131.3690 0001348  62.3608 129.4452 15.64419163  1303","ELEMENT_SET_NO":"999","OBJECT_TYPE":"PAYLOAD","PERIOD":"92.047","RCS_SIZE":"LARGE","GP_ID":"205784592","MEAN_MOTION":"15.64419163","COUNTRY_CODE":"US","RA_OF_ASC_NODE":"131.3690","PERIAPSIS":"374.001","DECAY_DATE":null,"ARG_OF_PERICENTER":"62.3608","BSTAR":"-0.00797330000000","OBJECT_ID":"2022-041AU","EPHEMERIS_TYPE":"0","LAUNCH_DATE":"2022-04-21"},{"FILE":"3489040","MEAN_ELEMENT_THEORY":"SGP4","CLASSIFICATION_TYPE":"U","TLE_LINE1":"1 52304U 22041AV  22160.91667824  .00057907  00000-0  41420-3 0  9999","MEAN_MOTION_DDOT":"0.0000000000000","MEAN_MOTION_DOT":"0.00057907","MEAN_ANOMALY":"280.0796","APOAPSIS":"352.363","OBJECT_NAME":"STARLINK-3744","CENTER_NAME":"EARTH","SEMIMAJOR_AXIS":"6727.920","TIME_SYSTEM":"UTC","SITE":"AFETR","ECCENTRICITY":"0.00038320","EPOCH":"2022-06-09T22:00:00.999936","OBJECT_TYPE":"PAYLOAD","PERIOD":"91.534","ELEMENT_SET_NO":"999","REF_FRAME":"TEME","NORAD_CAT_ID":"52304","TLE_LINE2":"2 52304  53.2152 131.1449 0003832   5.9148 280.0796 15.73191374  1307","INCLINATION":"53.2152","REV_AT_EPOCH":"130","PERIAPSIS":"347.207","DECAY_DATE":null,"RA_OF_ASC_NODE":"131.1449","RCS_SIZE":"LARGE","COUNTRY_CODE":"US","GP_ID":"205783850","MEAN_MOTION":"15.73191374","LAUNCH_DATE":"2022-04-21","ARG_OF_PERICENTER":"5.9148","EPHEMERIS_TYPE":"0","BSTAR":"0.00041420000000","OBJECT_ID":"2022-041AV"},{"TIME_SYSTEM":"UTC","EPOCH":"2022-06-09T22:00:00.999936","ECCENTRICITY":"0.00013150","SITE":"AFETR","OBJECT_NAME":"STARLINK-3724","CENTER_NAME":"EARTH","APOAPSIS":"375.773","MEAN_ANOMALY":"126.0529","SEMIMAJOR_AXIS":"6753.020","MEAN_MOTION_DDOT":"0.0000000000000","MEAN_MOTION_DOT":"-0.00715200","FILE":"3489040","MEAN_ELEMENT_THEORY":"SGP4","TLE_LINE1":"1 52305U 22041AW  22160.91667824 -.00715200  00000-0 -79713-2 0  9994","CLASSIFICATION_TYPE":"U","LAUNCH_DATE":"2022-04-21","ARG_OF_PERICENTER":"67.1309","EPHEMERIS_TYPE":"0","BSTAR":"-0.00797130000000","OBJECT_ID":"2022-041AW","RA_OF_ASC_NODE":"131.3760","PERIAPSIS":"373.997","DECAY_DATE":null,"RCS_SIZE":"LARGE","GP_ID":"205784062","MEAN_MOTION":"15.64428475","COUNTRY_CODE":"US","ELEMENT_SET_NO":"999","OBJECT_TYPE":"PAYLOAD","PERIOD":"92.046","REV_AT_EPOCH":"130","INCLINATION":"53.2175","NORAD_CAT_ID":"52305","REF_FRAME":"TEME","TLE_LINE2":"2 52305  53.2175 131.3760 0001315  67.1309 126.0529 15.64428475  1302"}];
